ORBCOMM FM24 [-]        
1 25478U 98053D   23343.14338048  .00000838  00000+0  34082-3 0  9995
2 25478  45.0105  18.6621 0002858 280.2671  79.7854 14.34987023317772
ORBCOMM FM25 [-]        
1 25479U 98053E   23342.13318327  .00000873  00000+0  35315-3 0  9991
2 25479  45.0091  21.6641 0004520 309.5843  50.4604 14.34973668317642
ORBCOMM FM26 [-]        
1 25480U 98053F   23342.08537320  .00000891  00000+0  36263-3 0  9996
2 25480  45.0090  15.4167 0005675 338.8386  21.2225 14.34512273317585
ORBCOMM FM27 [+]        
1 25481U 98053G   23343.16323582  .00000909  00000+0  36567-3 0  9997
2 25481  45.0079  17.0634 0001972 250.9745 109.0888 14.34949210317764
ORBCOMM FM28 [-]        
1 25482U 98053H   23342.36372068  .00000886  00000+0  35429-3 0  9992
2 25482  45.0071 319.8456 0004241 359.3681   0.7161 14.35430904318271
ORBCOMM FM30 [-]        
1 25980U 99065A   23341.99258212  .00000749  00000+0  31199-3 0  9999
2 25980  45.0306 201.2347 0006313  95.9653 264.1914 14.34644977254369
ORBCOMM FM31 [-]        
1 25981U 99065B   23341.68073693  .00000757  00000+0  31486-3 0  9992
2 25981  45.0223 196.5185 0003297 115.4440 244.6748 14.34661954253871
ORBCOMM FM32 [+]        
1 25982U 99065C   23343.01397347  .00000605  00000+0  26678-3 0  9996
2 25982  45.0151 202.9166 0005511 124.6488 235.4879 14.33609323254840
